$$SOE
2459580.500000000, A.D. 2022-Jan-01 00:00:00.0000, 1.555934047953972E+06, 3.665751355430300E+08, 1.504248129002423E+08,
2459587.500000000, A.D. 2022-Jan-08 00:00:00.0000, -9.507929343908587E+06, 3.692421735554483E+08, 1.517615325604490E+08,
2459594.500000000, A.D. 2022-Jan-15 00:00:00.0000, -2.056461786025115E+07, 3.716277073912739E+08, 1.529825527069406E+08,
2459601.500000000, A.D. 2022-Jan-22 00:00:00.0000, -3.160605526458182E+07, 3.737363789288263E+08, 1.540896019922294E+08,
2459608.500000000, A.D. 2022-Jan-29 00:00:00.0000, -4.262454304540300E+07, 3.755729127580416E+08, 1.550844504038152E+08,
2459615.500000000, A.D. 2022-Feb-05 00:00:00.0000, -5.361274967890788E+07, 3.771420985803103E+08, 1.559689021723771E+08,
2459622.500000000, A.D. 2022-Feb-12 00:00:00.0000, -6.456369753143665E+07, 3.784487740746993E+08, 1.567447890227839E+08,
2459629.500000000, A.D. 2022-Feb-19 00:00:00.0000, -7.547074883371933E+07, 3.794978105085001E+08, 1.574139640489253E+08,
2459636.500000000, A.D. 2022-Feb-26 00:00:00.0000, -8.632759212887543E+07, 3.802941002750309E+08, 1.579782962358932E+08,
2459643.500000000, A.D. 2022-Mar-05 00:00:00.0000, -9.712822911391348E+07, 3.808425456481804E+08, 1.584396655264598E+08,
2459650.500000000, A.D. 2022-Mar-12 00:00:00.0000, -1.078669617203365E+08, 3.811480485978320E+08, 1.587999583696452E+08,
2459657.500000000, A.D. 2022-Mar-19 00:00:00.0000, -1.185383794190786E+08, 3.812155016079081E+08, 1.590610637122228E+08,
2459664.500000000, A.D. 2022-Mar-26 00:00:00.0000, -1.291373467736267E+08, 3.810497794087221E+08, 1.592248693972248E+08,
2459671.500000000, A.D. 2022-Apr-02 00:00:00.0000, -1.396589912109149E+08, 3.806557314894993E+08, 1.592932589268534E+08,
2459678.500000000, A.D. 2022-Apr-09 00:00:00.0000, -1.500986907676119E+08, 3.800381753217465E+08, 1.592681085350728E+08,
2459685.500000000, A.D. 2022-Apr-16 00:00:00.0000, -1.604520614779145E+08, 3.792018908778297E+08, 1.591512845622988E+08,
2459692.500000000, A.D. 2022-Apr-23 00:00:00.0000, -1.707149456892117E+08, 3.781516174646765E+08, 1.589446413112876E+08,
2459699.500000000, A.D. 2022-Apr-30 00:00:00.0000, -1.808834031862690E+08, 3.768920505673085E+08, 1.586500193475403E+08,
2459706.500000000, A.D. 2022-May-07 00:00:00.0000, -1.909537020669941E+08, 3.754278366691868E+08, 1.582692437768246E+08,
2459713.500000000, A.D. 2022-May-14 00:00:00.0000, -2.009223079860509E+08, 3.737635690330641E+08, 1.578041225987727E+08,
2459720.500000000, A.D. 2022-May-21 00:00:00.0000, -2.107858737988881E+08, 3.719037851538738E+08, 1.572564453661177E+08,
2459727.500000000, A.D. 2022-May-28 00:00:00.0000, -2.205412300818570E+08, 3.698529648800504E+08, 1.566279820964677E+08,
2459734.500000000, A.D. 2022-Jun-04 00:00:00.0000, -2.301853762464172E+08, 3.676155288479491E+08, 1.559204823678680E+08,
2459741.500000000, A.D. 2022-Jun-11 00:00:00.0000, -2.397154720965046E+08, 3.651958371925458E+08, 1.551356745688851E+08,
2459748.500000000, A.D. 2022-Jun-18 00:00:00.0000, -2.491288297826850E+08, 3.625981885120964E+08, 1.542752652859820E+08,
2459755.500000000, A.D. 2022-Jun-25 00:00:00.0000, -2.584229061147421E+08, 3.598268190210175E+08, 1.533409388092284E+08,
2459762.500000000, A.D. 2022-Jul-02 00:00:00.0000, -2.675952950887748E+08, 3.568859017953849E+08, 1.523343567262271E+08,
2459769.500000000, A.D. 2022-Jul-09 00:00:00.0000, -2.766437202280039E+08, 3.537795462605716E+08, 1.512571575715031E+08,
2459776.500000000, A.D. 2022-Jul-16 00:00:00.0000, -2.855660267818735E+08, 3.505117989787671E+08, 1.501109566146556E+08,
2459783.500000000, A.D. 2022-Jul-23 00:00:00.0000, -2.943601759713430E+08, 3.470866457921631E+08, 1.488973459864827E+08,
2459790.500000000, A.D. 2022-Jul-30 00:00:00.0000, -3.030242411839662E+08, 3.435080119482157E+08, 1.476178948528844E+08,
2459797.500000000, A.D. 2022-Aug-06 00:00:00.0000, -3.115564025068570E+08, 3.397797608346896E+08, 1.462741493505559E+08,
2459804.500000000, A.D. 2022-Aug-13 00:00:00.0000, -3.199549404103635E+08, 3.359056940607463E+08, 1.448676325781265E+08,
2459811.500000000, A.D. 2022-Aug-20 00:00:00.0000, -3.282182301413141E+08, 3.318895523665806E+08, 1.433998447400786E+08,
2459818.500000000, A.D. 2022-Aug-27 00:00:00.0000, -3.363447367456270E+08, 3.277350166219695E+08, 1.418722633720858E+08,
2459825.500000000, A.D. 2022-Sep-03 00:00:00.0000, -3.443330104600720E+08, 3.234457087904899E+08, 1.402863436102067E+08,
2459832.500000000, A.D. 2022-Sep-10 00:00:00.0000, -3.521816823710529E+08, 3.190251928713397E+08, 1.386435184920892E+08,
2459839.500000000, A.D. 2022-Sep-17 00:00:00.0000, -3.598894602994301E+08, 3.144769758056480E+08, 1.369451992821361E+08,
2459846.500000000, A.D. 2022-Sep-24 00:00:00.0000, -3.674551248402915E+08, 3.098045082856987E+08, 1.351927758063168E+08,
2459853.500000000, A.D. 2022-Oct-01 00:00:00.0000, -3.748775253081545E+08, 3.050111854351957E+08, 1.333876167689998E+08,
2459860.500000000, A.D. 2022-Oct-08 00:00:00.0000, -3.821555751716832E+08, 3.001003478745986E+08, 1.315310700541164E+08,
2459867.500000000, A.D. 2022-Oct-15 00:00:00.0000, -3.892882479018654E+08, 2.950752843643388E+08, 1.296244631917359E+08,
2459874.500000000, A.D. 2022-Oct-22 00:00:00.0000, -3.962745754076197E+08, 2.899392343376615E+08, 1.276691040505634E+08,
2459881.500000000, A.D. 2022-Oct-29 00:00:00.0000, -4.031136465515906E+08, 2.846953877258735E+08, 1.256662813127319E+08,
2459888.500000000, A.D. 2022-Nov-05 00:00:00.0000, -4.098046036367602E+08, 2.793468848115770E+08, 1.236172647590838E+08,
2459895.500000000, A.D. 2022-Nov-12 00:00:00.0000, -4.163466388211940E+08, 2.738968173719815E+08, 1.215233056463772E+08,
2459902.500000000, A.D. 2022-Nov-19 00:00:00.0000, -4.227389911733829E+08, 2.683482301548858E+08, 1.193856371627367E+08,
2459909.500000000, A.D. 2022-Nov-26 00:00:00.0000, -4.289809440984694E+08, 2.627041222869525E+08, 1.172054749030580E+08,
2459916.500000000, A.D. 2022-Dec-03 00:00:00.0000, -4.350718229620740E+08, 2.569674485995950E+08, 1.149840173465415E+08,
2459923.500000000, A.D. 2022-Dec-10 00:00:00.0000, -4.410109928594995E+08, 2.511411208883037E+08, 1.127224463323375E+08,
2459930.500000000, A.D. 2022-Dec-17 00:00:00.0000, -4.467978564993439E+08, 2.452280090779844E+08, 1.104219275278793E+08,
2459937.500000000, A.D. 2022-Dec-24 00:00:00.0000, -4.524318520862100E+08, 2.392309422264010E+08, 1.080836108735665E+08,
2459944.500000000, A.D. 2022-Dec-31 00:00:00.0000, -4.579124508391916E+08, 2.331527094714322E+08, 1.057086309789923E+08,
2459951.500000000, A.D. 2023-Jan-07 00:00:00.0000, -4.632391540180753E+08, 2.269960618828404E+08, 1.032981075374319E+08,
2459958.500000000, A.D. 2023-Jan-14 00:00:00.0000, -4.684114914198036E+08, 2.207637157139678E+08, 1.008531459792030E+08,
2459965.500000000, A.D. 2023-Jan-21 00:00:00.0000, -4.734290219860920E+08, 2.144583538804353E+08, 9.837483816362768E+07,
2459972.500000000, A.D. 2023-Jan-28 00:00:00.0000, -4.782913328489152E+08, 2.080826254702799E+08, 9.586426275672030E+07,
2459979.500000000, A.D. 2023-Feb-04 00:00:00.0000, -4.829980370169143E+08, 2.016391463118604E+08, 9.332248556047991E+07,
2459986.500000000, A.D. 2023-Feb-11 00:00:00.0000, -4.875487714943843E+08, 1.951305004049208E+08, 9.075055994244763E+07,
2459993.500000000, A.D. 2023-Feb-18 00:00:00.0000, -4.919431958927851E+08, 1.885592413918208E+08, 8.814952730406600E+07,
2460000.500000000, A.D. 2023-Feb-25 00:00:00.0000, -4.961809912680089E+08, 1.819278939074205E+08, 8.552041755039066E+07,
2460007.500000000, A.D. 2023-Mar-04 00:00:00.0000, -5.002618590771542E+08, 1.752389548263925E+08, 8.286424955317158E+07,
2460014.500000000, A.D. 2023-Mar-11 00:00:00.0000, -5.041855202224594E+08, 1.684948944082995E+08, 8.018203160468417E+07,
2460021.500000000, A.D. 2023-Mar-18 00:00:00.0000, -5.079517141320267E+08, 1.616981572908027E+08, 7.747476185406485E+07,
2460028.500000000, A.D. 2023-Mar-25 00:00:00.0000, -5.115601976711197E+08, 1.548511632837606E+08, 7.474342870389697E+07,
2460035.500000000, A.D. 2023-Apr-01 00:00:00.0000, -5.150107434569170E+08, 1.479563083577078E+08, 7.198901116059959E+07,
2460042.500000000, A.D. 2023-Apr-08 00:00:00.0000, -5.183031381899061E+08, 1.410159670518357E+08, 6.921247929555218E+07,
2460049.500000000, A.D. 2023-Apr-15 00:00:00.0000, -5.214371833376437E+08, 1.340324951957734E+08, 6.641479494137399E+07,
2460056.500000000, A.D. 2023-Apr-22 00:00:00.0000, -5.244126963605756E+08, 1.270082298947150E+08, 6.359691220842486E+07,
2460063.500000000, A.D. 2023-Apr-29 00:00:00.0000, -5.272295097419470E+08, 1.199454890323146E+08, 6.075977775480910E+07,
2460070.500000000, A.D. 2023-May-06 00:00:00.0000, -5.298874695787014E+08, 1.128465720728705E+08, 5.790433111670123E+07,
2460077.500000000, A.D. 2023-May-13 00:00:00.0000, -5.323864347079642E+08, 1.057137612695219E+08, 5.503150511544557E+07,
2460084.500000000, A.D. 2023-May-20 00:00:00.0000, -5.347262761328706E+08, 9.854932278788234E+07, 5.214222627969832E+07,
2460091.500000000, A.D. 2023-May-27 00:00:00.0000, -5.369068765520834E+08, 9.135550771582735E+07, 4.923741526232640E+07,
2460098.500000000, A.D. 2023-Jun-03 00:00:00.0000, -5.389281299338642E+08, 8.413455298526648E+07, 4.631798724884490E+07,
2460105.500000000, A.D. 2023-Jun-10 00:00:00.0000, -5.407899411101702E+08, 7.688868219221053E+07, 4.338485235411403E+07,
2460112.500000000, A.D. 2023-Jun-17 00:00:00.0000, -5.424922253013723E+08, 6.962010625563243E+07, 4.043891599426667E+07,
2460119.500000000, A.D. 2023-Jun-24 00:00:00.0000, -5.440349072510638E+08, 6.233102397174114E+07, 3.748107920907252E+07,
2460126.500000000, A.D. 2023-Jul-01 00:00:00.0000, -5.454179197168283E+08, 5.502362329279442E+07, 3.451223897916888E+07,
2460133.500000000, A.D. 2023-Jul-08 00:00:00.0000, -5.466412029898616E+08, 4.770008415318957E+07, 3.153328875886066E+07,
2460140.500000000, A.D. 2023-Jul-15 00:00:00.0000, -5.477047067198761E+08, 4.036258001363014E+07, 2.854511911040057E+07,
2460147.500000000, A.D. 2023-Jul-22 00:00:00.0000, -5.486083905235133E+08, 3.301327709021829E+07, 2.554861803235333E+07,
$$EOE